COMMENT,ORIGINATOR,NORAD_CAT_ID,OBJECT_NAME,OBJECT_TYPE,CLASSIFICATION_TYPE,INTLDES,EPOCH,EPOCH_MICROSECONDS,MEAN_MOTION,ECCENTRICITY,INCLINATION,RA_OF_ASC_NODE,ARG_OF_PERICENTER,MEAN_ANOMALY,EPHEMERIS_TYPE,ELEMENT_SET_NO,REV_AT_EPOCH,BSTAR,MEAN_MOTION_DOT,MEAN_MOTION_DDOT,FILE,TLE_LINE0,TLE_LINE1,TLE_LINE2,OBJECT_ID,OBJECT_NUMBER,SEMIMAJOR_AXIS,PERIOD,APOGEE,PERIGEE,DECAYED
"GENERATED VIA SPACETRACK.ORG API","18 SPCS","48893","SPACEBEE-106","PAYLOAD","U","21059Q","2023-10-22 09:06:50","290272","15.42952457","0.0004531","97.6092","76.5349","200.8837","159.2226","0","999","12891","0.0011085","0.00048945","0","4047443","0 SPACEBEE-106","1 48893U 21059Q   23295.37974873  .00048945  00000-0  11085-2 0  9995","2 48893  97.6092  76.5349 0004531 200.8837 159.2226 15.42952457128914","2021-059Q","48893","6815.538","93.328","440.491","434.315","0"
"GENERATED VIA SPACETRACK.ORG API","18 SPCS","48893","SPACEBEE-106","PAYLOAD","U","21059Q","2023-10-22 09:06:50","290272","15.42952457","0.0004531","97.6092","76.5349","200.8837","159.2226","0","999","12891","0.0011085","0.00048945","0","4047923","0 SPACEBEE-106","1 48893U 21059Q   23295.37974873  .00048945  00000-0  11085-2 0  9995","2 48893  97.6092  76.5349 0004531 200.8837 159.2226 15.42952457128914","2021-059Q","48893","6815.538","93.328","440.491","434.315","0"
"GENERATED VIA SPACETRACK.ORG API","18 SPCS","48893","SPACEBEE-106","PAYLOAD","U","21059Q","2023-10-22 21:33:55","420704","15.43029667","0.0004418","97.6089","77.0771","200.5893","159.5176","0","999","12899","0.0016143","0.00071713","0","4048538","0 SPACEBEE-106","1 48893U 21059Q   23295.89855811  .00071713  00000-0  16143-2 0  9991","2 48893  97.6089  77.0771 0004418 200.5893 159.5176 15.43029667128992","2021-059Q","48893","6815.311","93.323","440.187","434.165","0"
"GENERATED VIA SPACETRACK.ORG API","18 SPCS","48893","SPACEBEE-106","PAYLOAD","U","21059Q","2023-10-22 23:07:18","402816","15.43039525","0.0004422","97.6089","77.1447","200.5516","159.5553","0","999","12900","0.0016393","0.0007286","0","4048701","0 SPACEBEE-106","1 48893U 21059Q   23295.96340744  .00072860  00000-0  16393-2 0  9994","2 48893  97.6089  77.1447 0004422 200.5516 159.5553 15.43039525129006","2021-059Q","48893","6815.282","93.322","440.160","434.133","0"
"GENERATED VIA SPACETRACK.ORG API","18 SPCS","48893","SPACEBEE-106","PAYLOAD","U","21059Q","2023-10-23 14:41:06","770688","15.43113217","0.0004401","97.6089","77.822","197.6323","162.4772","0","999","12910","0.0012858","0.00057154","0","4049935","0 SPACEBEE-106","1 48893U 21059Q   23296.61188392  .00057154  00000-0  12858-2 0  9997","2 48893  97.6089  77.8220 0004401 197.6323 162.4772 15.43113217129109","2021-059Q","48893","6815.065","93.318","439.929","433.930","0"
"GENERATED VIA SPACETRACK.ORG API","18 SPCS","48893","SPACEBEE-106","PAYLOAD","U","21059Q","2023-10-23 22:27:59","945472","15.43155857","0.000434","97.6089","78.1606","196.8481","163.2622","0","999","12915","0.0015096","0.00067301","0","4050204","0 SPACEBEE-106","1 48893U 21059Q   23296.93611048  .00067301  00000-0  15096-2 0  9993","2 48893  97.6089  78.1606 0004340 196.8481 163.2622 15.43155857129153","2021-059Q","48893","6814.939","93.315","439.762","433.846","0"
"GENERATED VIA SPACETRACK.ORG API","18 SPCS","48893","SPACEBEE-106","PAYLOAD","U","21059Q","2023-10-24 09:21:37","181952","15.43208592","0.0004379","97.609","78.6344","195.0748","165.037","0","999","12922","0.001248","0.00055638","0","4051588","0 SPACEBEE-106","1 48893U 21059Q   23297.39001368  .00055638  00000-0  12480-2 0  9996","2 48893  97.6090  78.6344 0004379 195.0748 165.0370 15.43208592129221","2021-059Q","48893","6814.784","93.312","439.633","433.665","0"
"GENERATED VIA SPACETRACK.ORG API","18 SPCS","48893","SPACEBEE-106","PAYLOAD","U","21059Q","2023-10-25 14:55:37","417440","15.43342958","0.0004242","97.6088","79.9214","191.2802","168.835","0","999","12941","0.0012732","0.00057029","0","4051852","0 SPACEBEE-106","1 48893U 21059Q   23298.62196085  .00057029  00000-0  12732-2 0  9990","2 48893  97.6088  79.9214 0004242 191.2802 168.8350 15.43342958129411","2021-059Q","48893","6814.388","93.304","439.144","433.363","0"
"GENERATED VIA SPACETRACK.ORG API","18 SPCS","48893","SPACEBEE-106","PAYLOAD","U","21059Q","2023-10-25 21:09:04","657824","15.43378256","0.0004176","97.6087","80.1924","190.623","169.493","0","999","12945","0.0014045","0.00063042","0","4052988","0 SPACEBEE-106","1 48893U 21059Q   23298.88130391  .00063042  00000-0  14045-2 0  9997","2 48893  97.6087  80.1924 0004176 190.6230 169.4930 15.43378256129451","2021-059Q","48893","6814.284","93.302","438.995","433.304","0"
"GENERATED VIA SPACETRACK.ORG API","18 SPCS","48893","SPACEBEE-106","PAYLOAD","U","21059Q","2023-10-26 08:02:36","90816","15.43442529","0.0004251","97.609","80.6666","188.2382","171.8796","0","999","12952","0.0015037","0.00067688","0","4053831","0 SPACEBEE-106","1 48893U 21059Q   23299.33513994  .00067688  00000-0  15037-2 0  9994","2 48893  97.6090  80.6666 0004251 188.2382 171.8796 15.43442529129528","2021-059Q","48893","6814.095","93.298","438.857","433.064","0"
"GENERATED VIA SPACETRACK.ORG API","18 SPCS","48893","SPACEBEE-106","PAYLOAD","U","21059Q","2023-10-26 08:02:36","90816","15.43442529","0.0004251","97.609","80.6666","188.2382","171.8796","0","999","12952","0.0015037","0.00067688","0","4054082","0 SPACEBEE-106","1 48893U 21059Q   23299.33513994  .00067688  00000-0  15037-2 0  9994","2 48893  97.6090  80.6666 0004251 188.2382 171.8796 15.43442529129528","2021-059Q","48893","6814.095","93.298","438.857","433.064","0"
"GENERATED VIA SPACETRACK.ORG API","18 SPCS","48893","SPACEBEE-106","PAYLOAD","U","21059Q","2023-10-26 20:29:27","177792","15.43518914","0.000415","97.6088","81.209","185.7194","174.4007","0","999","12960","0.0017344","0.00078395","0","4054421","0 SPACEBEE-106","1 48893U 21059Q   23299.85378678  .00078395  00000-0  17344-2 0  9999","2 48893  97.6088  81.2090 0004150 185.7194 174.4007 15.43518914129609","2021-059Q","48893","6813.870","93.293","438.563","432.908","0"
"GENERATED VIA SPACETRACK.ORG API","18 SPCS","48893","SPACEBEE-106","PAYLOAD","U","21059Q","2023-10-27 04:16:12","847008","15.43574362","0.0004183","97.6089","81.5474","185.0081","175.1125","0","999","12965","0.001929","0.00087466","0","4054698","0 SPACEBEE-106","1 48893U 21059Q   23300.17792647  .00087466  00000-0  19290-2 0  9994","2 48893  97.6089  81.5474 0004183 185.0081 175.1125 15.43574362129656","2021-059Q","48893","6813.707","93.290","438.422","432.722","0"
"GENERATED VIA SPACETRACK.ORG API","18 SPCS","48893","SPACEBEE-106","PAYLOAD","U","21059Q","2023-10-27 08:56:15","796320","15.43607721","0.0004173","97.609","81.7509","184.5424","175.5786","0","999","12968","0.0018301","0.00083022","0","4055819","0 SPACEBEE-106","1 48893U 21059Q   23300.37240505  .00083022  00000-0  18301-2 0  9993","2 48893  97.6090  81.7509 0004173 184.5424 175.5786 15.43607721129689","2021-059Q","48893","6813.609","93.288","438.317","432.631","0"
"GENERATED VIA SPACETRACK.ORG API","18 SPCS","48893","SPACEBEE-106","PAYLOAD","U","21059Q","2023-10-27 19:49:41","410272","15.43670863","0.000406","97.609","82.2259","182.9796","177.1428","0","999","12975","0.0015726","0.00071371","0","4055968","0 SPACEBEE-106","1 48893U 21059Q   23300.82617373  .00071371  00000-0  15726-2 0  9996","2 48893  97.6090  82.2259 0004060 182.9796 177.1428 15.43670863129752","2021-059Q","48893","6813.423","93.284","438.055","432.522","0"
"GENERATED VIA SPACETRACK.ORG API","18 SPCS","48893","SPACEBEE-106","PAYLOAD","U","21059Q","2023-10-27 21:23:02","51808","15.43683049","0.0004038","97.6091","82.2937","182.9827","177.1397","0","999","12976","0.0016022","0.00072759","0","4056385","0 SPACEBEE-106","1 48893U 21059Q   23300.89099597  .00072759  00000-0  16022-2 0  9996","2 48893  97.6091  82.2937 0004038 182.9827 177.1397 15.43683049129762","2021-059Q","48893","6813.387","93.283","438.004","432.501","0"
"GENERATED VIA SPACETRACK.ORG API","18 SPCS","48893","SPACEBEE-106","PAYLOAD","U","21059Q","2023-10-28 08:16:25","681152","15.43747686","0.0004087","97.6094","82.7678","181.0269","179.097","0","999","12983","0.0013712","0.00062308","0","4057688","0 SPACEBEE-106","1 48893U 21059Q   23301.34474168  .00062308  00000-0  13712-2 0  9990","2 48893  97.6094  82.7678 0004087 181.0269 179.0970 15.43747686129830","2021-059Q","48893","6813.197","93.279","437.847","432.278","0"
"GENERATED VIA SPACETRACK.ORG API","18 SPCS","48893","SPACEBEE-106","PAYLOAD","U","21059Q","2023-10-28 20:43:07","684032","15.43839744","0.0003888","97.6096","83.3107","178.7532","181.3726","0","999","12991","0.0020359","0.00093211","0","4057947","0 SPACEBEE-106","1 48893U 21059Q   23301.86328338  .00093211  00000-0  20359-2 0  9996","2 48893  97.6096  83.3107 0003888 178.7532 181.3726 15.43839744129911","2021-059Q","48893","6812.926","93.274","437.440","432.143","0"
"GENERATED VIA SPACETRACK.ORG API","18 SPCS","48893","SPACEBEE-106","PAYLOAD","U","21059Q","2023-10-28 22:16:27","711264","15.4385427","0.0003878","97.6097","83.3784","178.7615","181.3643","0","999","12992","0.0020345","0.00093192","0","4058258","0 SPACEBEE-106","1 48893U 21059Q   23301.92809851  .00093192  00000-0  20345-2 0  9990","2 48893  97.6097  83.3784 0003878 178.7615 181.3643 15.43854270129924","2021-059Q","48893","6812.884","93.273","437.391","432.107","0"
"GENERATED VIA SPACETRACK.ORG API","18 SPCS","48893","SPACEBEE-106","PAYLOAD","U","21059Q","2023-10-29 09:09:46","958400","15.43934027","0.000394","97.6099","83.8526","177.4355","182.6914","0","999","12999","0.0019548","0.00089739","0","4059417","0 SPACEBEE-106","1 48893U 21059Q   23302.38179350  .00089739  00000-0  19548-2 0  9990","2 48893  97.6099  83.8526 0003940 177.4355 182.6914 15.43934027129993","2021-059Q","48893","6812.649","93.268","437.198","431.830","0"
